[
    {
        "Altitude(m)": 556178.5295820093,
        "Argument of Periapsis(deg)": 0.026491964442854003,
        "Eccentricity": 0.0,
        "Inclination(deg)": 53.0,
        "Latitude(deg)": 36.3002211924913,
        "Longitude(deg)": -24.781712968015313,
        "Mean Anomaly(deg)": 47.63917147031035,
        "RAAN(deg)": 44.96057347411207,
        "Satellite Name": "Starlink Shell 1 198",
        "Satellite Number": 198,
        "Semi-Major Axis(m)": 6931778.249405717,
        "Time(s)": 760
    },
    {
        "Altitude(m)": 556261.5130592847,
        "Argument of Periapsis(deg)": 0.02684054292236524,
        "Eccentricity": 0.0,
        "Inclination(deg)": 53.0,
        "Latitude(deg)": 36.718151924479024,
        "Longitude(deg)": -24.241296808004723,
        "Mean Anomaly(deg)": 48.266002673867064,
        "RAAN(deg)": 44.9600547040346,
        "Satellite Name": "Starlink Shell 1 198",
        "Satellite Number": 198,
        "Semi-Major Axis(m)": 6931778.249405717,
        "Time(s)": 770
    },
    {
        "Altitude(m)": 556344.7089049412,
        "Argument of Periapsis(deg)": 0.027189121401876473,
        "Eccentricity": 0.0,
        "Inclination(deg)": 53.0,
        "Latitude(deg)": 37.133179743703415,
        "Longitude(deg)": -23.694572841840735,
        "Mean Anomaly(deg)": 48.892833877423776,
        "RAAN(deg)": 44.95953593395713,
        "Satellite Name": "Starlink Shell 1 198",
        "Satellite Number": 198,
        "Semi-Major Axis(m)": 6931778.249405717,
        "Time(s)": 780
    },
    {
        "Altitude(m)": 556428.0616231303,
        "Argument of Periapsis(deg)": 0.02753769988138771,
        "Eccentricity": 0.0,
        "Inclination(deg)": 53.0,
        "Latitude(deg)": 37.54522983156345,
        "Longitude(deg)": -23.14142055222956,
        "Mean Anomaly(deg)": 49.51966508098049,
        "RAAN(deg)": 44.95901716387965,
        "Satellite Name": "Starlink Shell 1 198",
        "Satellite Number": 198,
        "Semi-Major Axis(m)": 6931778.249405717,
        "Time(s)": 790
    },
    {
        "Altitude(m)": 556511.5158480622,
        "Argument of Periapsis(deg)": 0.02788627836089895,
        "Eccentricity": 0.0,
        "Inclination(deg)": 53.0,
        "Latitude(deg)": 37.95422568059782,
        "Longitude(deg)": -22.581719720643154,
        "Mean Anomaly(deg)": 50.146496284537214,
        "RAAN(deg)": 44.95849839380218,
        "Satellite Name": "Starlink Shell 1 198",
        "Satellite Number": 198,
        "Semi-Major Axis(m)": 6931778.249405717,
        "Time(s)": 800
    },
    {
        "Altitude(m)": 556595.0163723945,
        "Argument of Periapsis(deg)": 0.02823485684041019,
        "Eccentricity": 0.0,
        "Inclination(deg)": 53.0,
        "Latitude(deg)": 38.360089067783804,
        "Longitude(deg)": -22.015350068415664,
        "Mean Anomaly(deg)": 50.77332748809391,
        "RAAN(deg)": 44.95797962372471,
        "Satellite Name": "Starlink Shell 1 198",
        "Satellite Number": 198,
        "Semi-Major Axis(m)": 6931778.249405717,
        "Time(s)": 810
    },
    {
        "Altitude(m)": 556678.5081754568,
        "Argument of Periapsis(deg)": 0.028583435319921423,
        "Eccentricity": 0.0,
        "Inclination(deg)": 53.0,
        "Latitude(deg)": 38.762740029319595,
        "Longitude(deg)": -21.44219091036634,
        "Mean Anomaly(deg)": 51.40015869165064,
        "RAAN(deg)": 44.95746085364723,
        "Satellite Name": "Starlink Shell 1 198",
        "Satellite Number": 198,
        "Semi-Major Axis(m)": 6931778.249405717,
        "Time(s)": 820
    },
    {
        "Altitude(m)": 556761.9364513606,
        "Argument of Periapsis(deg)": 0.028932013799432665,
        "Eccentricity": 0.0,
        "Inclination(deg)": 53.0,
        "Latitude(deg)": 39.16209683709576,
        "Longitude(deg)": -20.8621223344361,
        "Mean Anomaly(deg)": 52.02698989520737,
        "RAAN(deg)": 44.95694208356976,
        "Satellite Name": "Starlink Shell 1 198",
        "Satellite Number": 198,
        "Semi-Major Axis(m)": 6931778.249405717,
        "Time(s)": 830
    },
    {
        "Altitude(m)": 556845.2466369459,
        "Argument of Periapsis(deg)": 0.029280592278943897,
        "Eccentricity": 0.0,
        "Inclination(deg)": 53.0,
        "Latitude(deg)": 39.5580759770841,
        "Longitude(deg)": -20.275024882209017,
        "Mean Anomaly(deg)": 52.65382109876407,
        "RAAN(deg)": 44.95642331349229,
        "Satellite Name": "Starlink Shell 1 198",
        "Satellite Number": 198,
        "Semi-Major Axis(m)": 6931778.249405717,
        "Time(s)": 840
    },
    {
        "Altitude(m)": 556928.3844395699,
        "Argument of Periapsis(deg)": 0.029629170758455132,
        "Eccentricity": 0.0,
        "Inclination(deg)": 53.0,
        "Latitude(deg)": 39.95059212987958,
        "Longitude(deg)": -19.680779243801492,
        "Mean Anomaly(deg)": 53.28065230232079,
        "RAAN(deg)": 44.95590454341481,
        "Satellite Name": "Starlink Shell 1 198",
        "Satellite Number": 198,
        "Semi-Major Axis(m)": 6931778.249405717,
        "Time(s)": 850
    },
    {
        "Altitude(m)": 557011.2958647301,
        "Argument of Periapsis(deg)": 0.02997774923796637,
        "Eccentricity": 0.0,
        "Inclination(deg)": 53.0,
        "Latitude(deg)": 40.3395581536466,
        "Longitude(deg)": -19.07926764868829,
        "Mean Anomaly(deg)": 53.907483505877494,
        "RAAN(deg)": 44.95538577333734,
        "Satellite Name": "Starlink Shell 1 198",
        "Satellite Number": 198,
        "Semi-Major Axis(m)": 6931778.249405717,
        "Time(s)": 860
    },
    {
        "Altitude(m)": 557093.927243468,
        "Argument of Periapsis(deg)": 0.030326327717477602,
        "Eccentricity": 0.0,
        "Inclination(deg)": 53.0,
        "Latitude(deg)": 40.7248850697463,
        "Longitude(deg)": -18.47037275062706,
        "Mean Anomaly(deg)": 54.53431470943421,
        "RAAN(deg)": 44.954867003259864,
        "Satellite Name": "Starlink Shell 1 198",
        "Satellite Number": 198,
        "Semi-Major Axis(m)": 6931778.249405717,
        "Time(s)": 870
    },
    {
        "Altitude(m)": 557176.2252596144,
        "Argument of Periapsis(deg)": 0.030674906196988847,
        "Eccentricity": 0.0,
        "Inclination(deg)": 53.0,
        "Latitude(deg)": 41.106482051322345,
        "Longitude(deg)": -17.853979050150418,
        "Mean Anomaly(deg)": 55.16114591299093,
        "RAAN(deg)": 44.954348233182394,
        "Satellite Name": "Starlink Shell 1 198",
        "Satellite Number": 198,
        "Semi-Major Axis(m)": 6931778.249405717,
        "Time(s)": 880
    },
    {
        "Altitude(m)": 557258.1369767686,
        "Argument of Periapsis(deg)": 0.031023484676500086,
        "Eccentricity": 0.0,
        "Inclination(deg)": 53.0,
        "Latitude(deg)": 41.48425641515432,
        "Longitude(deg)": -17.22997265273291,
        "Mean Anomaly(deg)": 55.78797711654766,
        "RAAN(deg)": 44.953829463104924,
        "Satellite Name": "Starlink Shell 1 198",
        "Satellite Number": 198,
        "Semi-Major Axis(m)": 6931778.249405717,
        "Time(s)": 890
    },
    {
        "Altitude(m)": 557339.6098651099,
        "Argument of Periapsis(deg)": 0.03137206315601132,
        "Eccentricity": 0.0,
        "Inclination(deg)": 53.0,
        "Latitude(deg)": 41.85811361709346,
        "Longitude(deg)": -16.598241044094628,
        "Mean Anomaly(deg)": 56.41480832010436,
        "RAAN(deg)": 44.95331069302745,
        "Satellite Name": "Starlink Shell 1 198",
        "Satellite Number": 198,
        "Semi-Major Axis(m)": 6931778.249405717,
        "Time(s)": 900
    },
    {
        "Altitude(m)": 557420.5918278912,
        "Argument of Periapsis(deg)": 0.03172064163552255,
        "Eccentricity": 0.0,
        "Inclination(deg)": 53.0,
        "Latitude(deg)": 42.227957251412725,
        "Longitude(deg)": -15.958674395958532,
        "Mean Anomaly(deg)": 57.04163952366106,
        "RAAN(deg)": 44.95279192294998,
        "Satellite Name": "Starlink Shell 1 198",
        "Satellite Number": 198,
        "Semi-Major Axis(m)": 6931778.249405717,
        "Time(s)": 910
    },
    {
        "Altitude(m)": 557501.031227772,
        "Argument of Periapsis(deg)": 0.0320692201150338,
        "Eccentricity": 0.0,
        "Inclination(deg)": 53.0,
        "Latitude(deg)": 42.5936890544245,
        "Longitude(deg)": -15.311165376901789,
        "Mean Anomaly(deg)": 57.668470727217795,
        "RAAN(deg)": 44.95227315287251,
        "Satellite Name": "Starlink Shell 1 198",
        "Satellite Number": 198,
        "Semi-Major Axis(m)": 6931778.249405717,
        "Time(s)": 920
    },
    {
        "Altitude(m)": 557580.8769128061,
        "Argument of Periapsis(deg)": 0.032417798594545036,
        "Eccentricity": 0.0,
        "Inclination(deg)": 53.0,
        "Latitude(deg)": 42.95520891272857,
        "Longitude(deg)": -14.6556089814919,
        "Mean Anomaly(deg)": 58.2953019307745,
        "RAAN(deg)": 44.95175438279502,
        "Satellite Name": "Starlink Shell 1 198",
        "Satellite Number": 198,
        "Semi-Major Axis(m)": 6931778.249405717,
        "Time(s)": 930
    },
    {
        "Altitude(m)": 557660.0782421972,
        "Argument of Periapsis(deg)": 0.03276637707405627,
        "Eccentricity": 0.0,
        "Inclination(deg)": 53.0,
        "Latitude(deg)": 43.31241487646448,
        "Longitude(deg)": -13.99190389081589,
        "Mean Anomaly(deg)": 58.92213313433122,
        "RAAN(deg)": 44.951235612717554,
        "Satellite Name": "Starlink Shell 1 198",
        "Satellite Number": 198,
        "Semi-Major Axis(m)": 6931778.249405717,
        "Time(s)": 940
    }
]